{
  "type": "FeatureCollection",
  "features": [
    {
      "type": "Feature",
      "properties": {
        "norad_id": 66746,
        "name": "TRANSPORTER-15CJ",
        "group": "last-30-days",
        "lat": 51.22046942974399,
        "lon": 61.1636254287121,
        "alt_km": 510.5398697636292,
        "timestamp": "2025-12-24T22:42:20.745508+00:00",
        "meta_object_name": "TRANSPORTER-15CJ",
        "meta_object_id": "2025-276CJ",
        "meta_epoch": "2025-12-23T05:20:14.518464",
        "meta_mean_motion": 15.17767855,
        "meta_eccentricity": 0.00063526,
        "meta_inclination": 97.3982,
        "meta_ra_of_asc_node": 68.7864,
        "meta_arg_of_pericenter": 180.4238,
        "meta_mean_anomaly": 179.6992,
        "meta_ephemeris_type": 0,
        "meta_classification_type": "U",
        "meta_norad_cat_id": 66746,
        "meta_element_set_no": 999,
        "meta_rev_at_epoch": 371,
        "meta_bstar": -0.0014121211,
        "meta_mean_motion_dot": -0.00028468,
        "meta_mean_motion_ddot": 0,
        "tle_line1": "1 66746U 25276CJ  25357.22239026 -.00028468  00000+0 -14121-2 0  9999",
        "tle_line2": "2 66746  97.3982  68.7864 0006352 180.4238 179.6992 15.17767855  3716"
      },
      "geometry": {
        "type": "Point",
        "coordinates": [
          61.1636254287121,
          51.22046942974399
        ]
      }
    },
    {
      "type": "Feature",
      "properties": {
        "norad_id": 66747,
        "name": "W-SERIES 5",
        "group": "last-30-days",
        "lat": 56.9845082446438,
        "lon": 58.899856852348734,
        "alt_km": 508.670528319456,
        "timestamp": "2025-12-24T22:42:20.745520+00:00",
        "meta_object_name": "W-SERIES 5",
        "meta_object_id": "2025-276CK",
        "meta_epoch": "2025-12-24T08:00:03.000384",
        "meta_mean_motion": 15.1757398,
        "meta_eccentricity": 0.00014703,
        "meta_inclination": 97.4408,
        "meta_ra_of_asc_node": 69.9009,
        "meta_arg_of_pericenter": 199.7323,
        "meta_mean_anomaly": 112.8996,
        "meta_ephemeris_type": 0,
        "meta_classification_type": "U",
        "meta_norad_cat_id": 66747,
        "meta_element_set_no": 999,
        "meta_rev_at_epoch": 130,
        "meta_bstar": -0.0021954072,
        "meta_mean_motion_dot": -0.00043863,
        "meta_mean_motion_ddot": 0,
        "tle_line1": "1 66747U 25276CK  25358.33336806 -.00043863  00000+0 -21954-2 0  9995",
        "tle_line2": "2 66747  97.4408  69.9009 0001470 199.7323 112.8996 15.17573980  1309"
      },
      "geometry": {
        "type": "Point",
        "coordinates": [
          58.899856852348734,
          56.9845082446438
        ]
      }
    },
    {
      "type": "Feature",
      "properties": {
        "norad_id": 66748,
        "name": "TRANSPORTER-15CL",
        "group": "last-30-days",
        "lat": 68.96662742362857,
        "lon": -89.60645919854609,
        "alt_km": 503.5723605694966,
        "timestamp": "2025-12-24T22:42:20.745530+00:00",
        "meta_object_name": "TRANSPORTER-15CL",
        "meta_object_id": "2025-276CL",
        "meta_epoch": "2025-12-24T04:49:25.409856",
        "meta_mean_motion": 15.18130934,
        "meta_eccentricity": 0.00016772,
        "meta_inclination": 97.4414,
        "meta_ra_of_asc_node": 69.7899,
        "meta_arg_of_pericenter": 100.422,
        "meta_mean_anomaly": 259.7203,
        "meta_ephemeris_type": 0,
        "meta_classification_type": "U",
        "meta_norad_cat_id": 66748,
        "meta_element_set_no": 999,
        "meta_rev_at_epoch": 386,
        "meta_bstar": 0.0011661203,
        "meta_mean_motion_dot": 0.00023791,
        "meta_mean_motion_ddot": 0,
        "tle_line1": "1 66748U 25276CL  25358.20098854  .00023791  00000+0  11661-2 0  9990",
        "tle_line2": "2 66748  97.4414  69.7899 0001677 100.4220 259.7203 15.18130934  3860"
      },
      "geometry": {
        "type": "Point",
        "coordinates": [
          -89.60645919854609,
          68.96662742362857
        ]
      }
    },
    {
      "type": "Feature",
      "properties": {
        "norad_id": 66749,
        "name": "TRANSPORTER-15CM",
        "group": "last-30-days",
        "lat": 79.88616479004523,
        "lon": 23.404440278944854,
        "alt_km": 504.93879075170116,
        "timestamp": "2025-12-24T22:42:20.745540+00:00",
        "meta_object_name": "TRANSPORTER-15CM",
        "meta_object_id": "2025-276CM",
        "meta_epoch": "2025-12-24T04:56:14.217504",
        "meta_mean_motion": 15.17895008,
        "meta_eccentricity": 0.00019686,
        "meta_inclination": 97.4399,
        "meta_ra_of_asc_node": 69.7806,
        "meta_arg_of_pericenter": 182.359,
        "meta_mean_anomaly": 177.7635,
        "meta_ephemeris_type": 0,
        "meta_classification_type": "U",
        "meta_norad_cat_id": 66749,
        "meta_element_set_no": 999,
        "meta_rev_at_epoch": 386,
        "meta_bstar": 0.00057574608,
        "meta_mean_motion_dot": 0.00011614,
        "meta_mean_motion_ddot": 0,
        "tle_line1": "1 66749U 25276CM  25358.20572011  .00011614  00000+0  57575-3 0  9999",
        "tle_line2": "2 66749  97.4399  69.7806 0001968 182.3590 177.7635 15.17895008  3860"
      },
      "geometry": {
        "type": "Point",
        "coordinates": [
          23.404440278944854,
          79.88616479004523
        ]
      }
    },
    {
      "type": "Feature",
      "properties": {
        "norad_id": 66750,
        "name": "TRANSPORTER-15CN",
        "group": "last-30-days",
        "lat": 76.50759684717683,
        "lon": -76.44974635959827,
        "alt_km": 503.3840628748794,
        "timestamp": "2025-12-24T22:42:20.745552+00:00",
        "meta_object_name": "TRANSPORTER-15CN",
        "meta_object_id": "2025-276CN",
        "meta_epoch": "2025-12-24T06:26:29.652000",
        "meta_mean_motion": 15.18051603,
        "meta_eccentricity": 0.00022379,
        "meta_inclination": 97.4438,
        "meta_ra_of_asc_node": 69.8649,
        "meta_arg_of_pericenter": 148.4569,
        "meta_mean_anomaly": 211.68,
        "meta_ephemeris_type": 0,
        "meta_classification_type": "U",
        "meta_norad_cat_id": 66750,
        "meta_element_set_no": 999,
        "meta_rev_at_epoch": 387,
        "meta_bstar": 0.00055816894,
        "meta_mean_motion_dot": 0.00011308,
        "meta_mean_motion_ddot": 0,
        "tle_line1": "1 66750U 25276CN  25358.26839875  .00011308  00000+0  55817-3 0  9998",
        "tle_line2": "2 66750  97.4438  69.8649 0002237 148.4569 211.6800 15.18051603  3870"
      },
      "geometry": {
        "type": "Point",
        "coordinates": [
          -76.44974635959827,
          76.50759684717683
        ]
      }
    },
    {
      "type": "Feature",
      "properties": {
        "norad_id": 66751,
        "name": "ICEYE-X58",
        "group": "last-30-days",
        "lat": 78.11726285141725,
        "lon": 32.11734191495468,
        "alt_km": 505.8458295880264,
        "timestamp": "2025-12-24T22:42:20.745563+00:00",
        "meta_object_name": "ICEYE-X58",
        "meta_object_id": "2025-276CP",
        "meta_epoch": "2025-12-24T04:56:49.119648",
        "meta_mean_motion": 15.17821038,
        "meta_eccentricity": 0.000245,
        "meta_inclination": 97.441,
        "meta_ra_of_asc_node": 69.7883,
        "meta_arg_of_pericenter": 199.7456,
        "meta_mean_anomaly": 160.3684,
        "meta_ephemeris_type": 0,
        "meta_classification_type": "U",
        "meta_norad_cat_id": 66751,
        "meta_element_set_no": 999,
        "meta_rev_at_epoch": 386,
        "meta_bstar": 0.00049752668,
        "meta_mean_motion_dot": 0.00010004,
        "meta_mean_motion_ddot": 0,
        "tle_line1": "1 66751U 25276CP  25358.20612407  .00010004  00000+0  49753-3 0  9997",
        "tle_line2": "2 66751  97.4410  69.7883 0002450 199.7456 160.3684 15.17821038  3866"
      },
      "geometry": {
        "type": "Point",
        "coordinates": [
          32.11734191495468,
          78.11726285141725
        ]
      }
    },
    {
      "type": "Feature",
      "properties": {
        "norad_id": 66752,
        "name": "ICEYE-X59",
        "group": "last-30-days",
        "lat": 61.68262374562477,
        "lon": 56.47161522758435,
        "alt_km": 508.28365828231654,
        "timestamp": "2025-12-24T22:42:20.745574+00:00",
        "meta_object_name": "ICEYE-X59",
        "meta_object_id": "2025-276CQ",
        "meta_epoch": "2025-12-24T05:01:27.015744",
        "meta_mean_motion": 15.17621478,
        "meta_eccentricity": 0.00019168,
        "meta_inclination": 97.4404,
        "meta_ra_of_asc_node": 69.7838,
        "meta_arg_of_pericenter": 229.2772,
        "meta_mean_anomaly": 130.8295,
        "meta_ephemeris_type": 0,
        "meta_classification_type": "U",
        "meta_norad_cat_id": 66752,
        "meta_element_set_no": 999,
        "meta_rev_at_epoch": 386,
        "meta_bstar": 0.00053127703,
        "meta_mean_motion_dot": 0.00010627,
        "meta_mean_motion_ddot": 0,
        "tle_line1": "1 66752U 25276CQ  25358.20934046  .00010627  00000+0  53128-3 0  9996",
        "tle_line2": "2 66752  97.4404  69.7838 0001916 229.2772 130.8295 15.17621478  3862"
      },
      "geometry": {
        "type": "Point",
        "coordinates": [
          56.47161522758435,
          61.68262374562477
        ]
      }
    }
  ]
}